[{"OBJECT_NAME":"STARLINK-36458","OBJECT_ID":"2026-003K","EPOCH":"2026-03-09T11:33:01.311552","MEAN_MOTION":15.27571621,"ECCENTRICITY":0.00014309,"INCLINATION":42.9974,"RA_OF_ASC_NODE":228.0961,"ARG_OF_PERICENTER":230.7461,"MEAN_ANOMALY":129.3264,"EPHEMERIS_TYPE":0,"CLASSIFICATION_TYPE":"U","NORAD_CAT_ID":67343,"ELEMENT_SET_NO":999,"REV_AT_EPOCH":879,"BSTAR":0.0013148191,"MEAN_MOTION_DOT":0.00036087,"MEAN_MOTION_DDOT":0},{"OBJECT_NAME":"TITAN 3C TRANSTAGE DEB","OBJECT_ID":"1965-082PT","EPOCH":"2026-03-09T13:23:41.116128","MEAN_MOTION":15.28908269,"ECCENTRICITY":0.00104371,"INCLINATION":32.0266,"RA_OF_ASC_NODE":255.1391,"ARG_OF_PERICENTER":172.8339,"MEAN_ANOMALY":187.2474,"EPHEMERIS_TYPE":0,"CLASSIFICATION_TYPE":"U","NORAD_CAT_ID":3462,"ELEMENT_SET_NO":999,"REV_AT_EPOCH":24824,"BSTAR":0.0004444037,"MEAN_MOTION_DOT":0.00012939,"MEAN_MOTION_DDOT":0}]
